[{"OBJECT_NAME":"RISAT-2BR2","OBJECT_ID":"2020-081A","EPOCH":"2026-03-09T12:34:56.452800","MEAN_MOTION":15.01602463,"ECCENTRICITY":0.00109054,"INCLINATION":36.898,"RA_OF_ASC_NODE":95.9121,"ARG_OF_PERICENTER":52.9142,"MEAN_ANOMALY":307.2595,"EPHEMERIS_TYPE":0,"CLASSIFICATION_TYPE":"U","NORAD_CAT_ID":46905,"ELEMENT_SET_NO":999,"REV_AT_EPOCH":29248,"BSTAR":0.00037609291,"MEAN_MOTION_DOT":4.901e-5,"MEAN_MOTION_DDOT":0},{"OBJECT_NAME":"STARLINK-34748","OBJECT_ID":"2025-152G","EPOCH":"2026-03-09T13:53:52.242432","MEAN_MOTION":15.05633159,"ECCENTRICITY":0.0003972,"INCLINATION":97.5998,"RA_OF_ASC_NODE":285.4411,"ARG_OF_PERICENTER":100.2475,"MEAN_ANOMALY":259.92,"EPHEMERIS_TYPE":0,"CLASSIFICATION_TYPE":"U","NORAD_CAT_ID":64848,"ELEMENT_SET_NO":999,"REV_AT_EPOCH":3540,"BSTAR":-7.612e-7,"MEAN_MOTION_DOT":-7.2e-7,"MEAN_MOTION_DDOT":0}]
